COMMENT,ORIGINATOR,NORAD_CAT_ID,OBJECT_NAME,OBJECT_TYPE,CLASSIFICATION_TYPE,INTLDES,EPOCH,EPOCH_MICROSECONDS,MEAN_MOTION,ECCENTRICITY,INCLINATION,RA_OF_ASC_NODE,ARG_OF_PERICENTER,MEAN_ANOMALY,EPHEMERIS_TYPE,ELEMENT_SET_NO,REV_AT_EPOCH,BSTAR,MEAN_MOTION_DOT,MEAN_MOTION_DDOT,FILE,TLE_LINE0,TLE_LINE1,TLE_LINE2,OBJECT_ID,OBJECT_NUMBER,SEMIMAJOR_AXIS,PERIOD,APOGEE,PERIGEE,DECAYED,date
GENERATED VIA SPACETRACK.ORG API,18 SPCS,48897,SPACEBEE-109,PAYLOAD,U,21059U,2023/2/25 7:34,645888,15.24082726,0.0008444,97.5813,191.5464,300.548,59.4923,0,999,9232,0.0010848,0.00026361,0,3837605,0 SPACEBEE-109,1 48897U 21059U   23056.31538942  .00026361  00000-0  10848-2 0  9995,2 48897  97.5813 191.5464 0008444 300.5480  59.4923 15.24082726 92326,2021-059U,48897,6871.678,94.483,499.346,487.741,0,2023/4/26
GENERATED VIA SPACETRACK.ORG API,18 SPCS,48897,SPACEBEE-109,PAYLOAD,U,21059U,2023/2/25 20:10,68256,15.24113198,0.0008399,97.5813,192.0773,298.4421,61.5969,0,999,9240,0.0012257,0.00029835,0,3839003,0 SPACEBEE-109,1 48897U 21059U   23056.84062579  .00029835  00000-0  12257-2 0  9996,2 48897  97.5813 192.0773 0008399 298.4421  61.5969 15.24113198 92405,2021-059U,48897,6871.587,94.481,499.223,487.68,0,2023/4/27
GENERATED VIA SPACETRACK.ORG API,18 SPCS,48897,SPACEBEE-109,PAYLOAD,U,21059U,2023/2/26 8:46,440000,15.24148246,0.0008439,97.5812,192.6088,296.942,63.0955,0,999,9248,0.0013615,0.00033199,0,3840907,0 SPACEBEE-109,1 48897U 21059U   23057.36585000  .00033199  00000-0  13615-2 0  9990,2 48897  97.5812 192.6088 0008439 296.9420  63.0955 15.24148246 92488,2021-059U,48897,6871.481,94.479,499.145,487.547,0,2023/4/28
GENERATED VIA SPACETRACK.ORG API,18 SPCS,48897,SPACEBEE-109,PAYLOAD,U,21059U,2023/2/26 8:46,440000,15.24148246,0.0008439,97.5812,192.6088,296.942,63.0955,0,999,9248,0.0013615,0.00033199,0,3841853,0 SPACEBEE-109,1 48897U 21059U   23057.36585000  .00033199  00000-0  13615-2 0  9990,2 48897  97.5812 192.6088 0008439 296.9420  63.0955 15.24148246 92488,2021-059U,48897,6871.481,94.479,499.145,487.547,0,2023/4/29
GENERATED VIA SPACETRACK.ORG API,18 SPCS,48897,SPACEBEE-109,PAYLOAD,U,21059U,2023/2/27 8:24,947648,15.24223642,0.0008432,97.5809,193.6046,293.4044,66.6305,0,999,9263,0.0017997,0.0004407,0,3846396,0 SPACEBEE-109,1 48897U 21059U   23058.35061282  .00044070  00000-0  17997-2 0  9998,2 48897  97.5809 193.6046 0008432 293.4044  66.6305 15.24223642 92635,2021-059U,48897,6871.255,94.474,498.914,487.326,0,2023/4/30
GENERATED VIA SPACETRACK.ORG API,18 SPCS,48897,SPACEBEE-109,PAYLOAD,U,21059U,2023/2/27 8:24,947648,15.24223642,0.0008432,97.5809,193.6046,293.4044,66.6305,0,999,9263,0.0017997,0.0004407,0,3846545,0 SPACEBEE-109,1 48897U 21059U   23058.35061282  .00044070  00000-0  17997-2 0  9998,2 48897  97.5809 193.6046 0008432 293.4044  66.6305 15.24223642 92635,2021-059U,48897,6871.255,94.474,498.914,487.326,0,
GENERATED VIA SPACETRACK.ORG API,18 SPCS,48897,SPACEBEE-109,PAYLOAD,U,21059U,2023/2/28 8:02,362016,15.24319649,0.0008472,97.5802,194.6003,289.8204,70.2119,0,999,9278,0.0018656,0.00045828,0,3847424,0 SPACEBEE-109,1 48897U 21059U   23059.33531669  .00045828  00000-0  18656-2 0  9993,2 48897  97.5802 194.6003 0008472 289.8204  70.2119 15.24319649 92786,2021-059U,48897,6870.966,94.468,498.652,487.01,0,
GENERATED VIA SPACETRACK.ORG API,18 SPCS,48897,SPACEBEE-109,PAYLOAD,U,21059U,2023/2/28 8:02,362016,15.24319649,0.0008472,97.5802,194.6003,289.8204,70.2119,0,999,9278,0.0018656,0.00045828,0,3847542,0 SPACEBEE-109,1 48897U 21059U   23059.33531669  .00045828  00000-0  18656-2 0  9993,2 48897  97.5802 194.6003 0008472 289.8204  70.2119 15.24319649 92786,2021-059U,48897,6870.966,94.468,498.652,487.01,0,
GENERATED VIA SPACETRACK.ORG API,18 SPCS,48897,SPACEBEE-109,PAYLOAD,U,21059U,2023/2/28 22:13,190848,15.2435693,0.0008524,97.5806,195.1983,287.8621,72.1686,0,999,9287,0.0012411,0.00030434,0,3847656,0 SPACEBEE-109,1 48897U 21059U   23059.92611332  .00030434  00000-0  12411-2 0  9994,2 48897  97.5806 195.1983 0008524 287.8621  72.1686 15.24356930 92876,2021-059U,48897,6870.854,94.466,498.576,486.862,0,
GENERATED VIA SPACETRACK.ORG API,18 SPCS,48897,SPACEBEE-109,PAYLOAD,U,21059U,2023/3/1 2:57,829664,15.24371093,0.0008498,97.5804,195.3973,286.9451,73.0854,0,999,9290,0.0013078,0.00032094,0,3848064,0 SPACEBEE-109,1 48897U 21059U   23060.12304201  .00032094  00000-0  13078-2 0  9996,2 48897  97.5804 195.3973 0008498 286.9451  73.0854 15.24371093 92904,2021-059U,48897,6870.812,94.465,498.515,486.838,0,
GENERATED VIA SPACETRACK.ORG API,18 SPCS,48897,SPACEBEE-109,PAYLOAD,U,21059U,2023/3/1 21:51,808992,15.2442648,0.0008481,97.581,196.1945,284.1588,75.8707,0,999,9302,0.0012432,0.00030549,0,3848834,0 SPACEBEE-109,1 48897U 21059U   23060.91073853  .00030549  00000-0  12432-2 0  9995,2 48897  97.5810 196.1945 0008481 284.1588  75.8707 15.24426480 93024,2021-059U,48897,6870.645,94.462,498.337,486.683,0,
GENERATED VIA SPACETRACK.ORG API,18 SPCS,48897,SPACEBEE-109,PAYLOAD,U,21059U,2023/3/2 19:54,585280,15.24492531,0.0008473,97.5811,197.1245,281.1565,78.8719,0,999,9316,0.0013672,0.00033684,0,3849339,0 SPACEBEE-109,1 48897U 21059U   23061.82968270  .00033684  00000-0  13672-2 0  9992,2 48897  97.5811 197.1245 0008473 281.1565  78.8719 15.24492531 93163,2021-059U,48897,6870.447,94.458,498.133,486.49,0,
GENERATED VIA SPACETRACK.ORG API,18 SPCS,48897,SPACEBEE-109,PAYLOAD,U,21059U,2023/3/2 19:54,585280,15.24492531,0.0008473,97.5811,197.1245,281.1565,78.8719,0,999,9316,0.0013672,0.00033684,0,3849487,0 SPACEBEE-109,1 48897U 21059U   23061.82968270  .00033684  00000-0  13672-2 0  9992,2 48897  97.5811 197.1245 0008473 281.1565  78.8719 15.24492531 93163,2021-059U,48897,6870.447,94.458,498.133,486.49,0,
GENERATED VIA SPACETRACK.ORG API,18 SPCS,48897,SPACEBEE-109,PAYLOAD,U,21059U,2023/3/3 8:30,446816,15.24543616,0.0008509,97.5812,197.6559,279.3179,80.7096,0,999,9324,0.0018801,0.00046499,0,3850092,0 SPACEBEE-109,1 48897U 21059U   23062.35477369  .00046499  00000-0  18801-2 0  9992,2 48897  97.5812 197.6559 0008509 279.3179  80.7096 15.24543616 93247,2021-059U,48897,6870.293,94.454,498.004,486.312,0,
GENERATED VIA SPACETRACK.ORG API,18 SPCS,48897,SPACEBEE-109,PAYLOAD,U,21059U,2023/3/3 8:30,446816,15.24543616,0.0008509,97.5812,197.6559,279.3179,80.7096,0,999,9324,0.0018801,0.00046499,0,3850163,0 SPACEBEE-109,1 48897U 21059U   23062.35477369  .00046499  00000-0  18801-2 0  9992,2 48897  97.5812 197.6559 0008509 279.3179  80.7096 15.24543616 93247,2021-059U,48897,6870.293,94.454,498.004,486.312,0,
GENERATED VIA SPACETRACK.ORG API,18 SPCS,48897,SPACEBEE-109,PAYLOAD,U,21059U,2023/3/3 21:06,912992,15.24588626,0.0008504,97.5812,198.1873,277.3975,82.6296,0,999,9332,0.0017266,0.00042732,0,3850400,0 SPACEBEE-109,1 48897U 21059U   23062.87984853  .00042732  00000-0  17266-2 0  9990,2 48897  97.5812 198.1873 0008504 277.3975  82.6296 15.24588626 93321,2021-059U,48897,6870.158,94.452,497.865,486.181,0,
GENERATED VIA SPACETRACK.ORG API,18 SPCS,48897,SPACEBEE-109,PAYLOAD,U,21059U,2023/3/4 8:08,345312,15.246373,0.0008539,97.5812,198.6523,275.933,84.0933,0,999,9339,0.0020568,0.00051049,0,3851072,0 SPACEBEE-109,1 48897U 21059U   23063.33927483  .00051049  00000-0  20568-2 0  9998,2 48897  97.5812 198.6523 0008539 275.9330  84.0933 15.24637300 93390,2021-059U,48897,6870.012,94.449,497.743,486.01,0,
GENERATED VIA SPACETRACK.ORG API,18 SPCS,48897,SPACEBEE-109,PAYLOAD,U,21059U,2023/3/5 1:28,124960,15.24698271,0.000866,97.5812,199.3825,274.7557,85.2691,0,999,9350,0.0017824,0.0004427,0,3851462,0 SPACEBEE-109,1 48897U 21059U   23064.06120515  .00044270  00000-0  17824-2 0  9999,2 48897  97.5812 199.3825 0008660 274.7557  85.2691 15.24698271 93507,2021-059U,48897,6869.829,94.445,497.643,485.744,0,
GENERATED VIA SPACETRACK.ORG API,18 SPCS,48897,SPACEBEE-109,PAYLOAD,U,21059U,2023/3/5 14:04,804576,15.247519,0.0008604,97.5817,199.9144,272.1216,87.9036,0,999,9358,0.0019755,0.00049185,0,3851939,0 SPACEBEE-109,1 48897U 21059U   23064.58622459  .00049185  00000-0  19755-2 0  9995,2 48897  97.5817 199.9144 0008604 272.1216  87.9036 15.24751900 93583,2021-059U,48897,6869.668,94.442,497.443,485.622,0,
GENERATED VIA SPACETRACK.ORG API,18 SPCS,48897,SPACEBEE-109,PAYLOAD,U,21059U,2023/3/5 21:56,43904,15.2478637,0.0008562,97.5817,200.2466,270.8178,89.2078,0,999,9363,0.0020011,0.00049878,0,3852256,0 SPACEBEE-109,1 48897U 21059U   23064.91435236  .00049878  00000-0  20011-2 0  9993,2 48897  97.5817 200.2466 0008562 270.8178  89.2078 15.24786370 93637,2021-059U,48897,6869.564,94.439,497.311,485.547,0,
GENERATED VIA SPACETRACK.ORG API,18 SPCS,48897,SPACEBEE-109,PAYLOAD,U,21059U,2023/3/6 2:40,866784,15.24808555,0.0008546,97.5818,200.446,270.2149,89.8108,0,999,9366,0.0021308,0.00053175,0,3852365,0 SPACEBEE-109,1 48897U 21059U   23065.11122531  .00053175  00000-0  21308-2 0  9992,2 48897  97.5818 200.4460 0008546 270.2149  89.8108 15.24808555 93661,2021-059U,48897,6869.497,94.438,497.233,485.492,0,
GENERATED VIA SPACETRACK.ORG API,18 SPCS,48897,SPACEBEE-109,PAYLOAD,U,21059U,2023/3/6 8:58,242112,15.24838741,0.0008524,97.5819,200.7117,269.3805,90.6456,0,999,9370,0.0021413,0.00053487,0,3853141,0 SPACEBEE-109,1 48897U 21059U   23065.37371808  .00053487  00000-0  21413-2 0  9996,2 48897  97.5819 200.7117 0008524 269.3805  90.6456 15.24838741 93709,2021-059U,48897,6869.407,94.436,497.127,485.416,0,
GENERATED VIA SPACETRACK.ORG API,18 SPCS,48897,SPACEBEE-109,PAYLOAD,U,21059U,2023/3/7 8:35,519840,15.24939693,0.000848,97.5822,201.7083,266.0326,93.9942,0,999,9385,0.0021891,0.00054857,0,3853650,0 SPACEBEE-109,1 48897U 21059U   23066.35802685  .00054857  00000-0  21891-2 0  9999,2 48897  97.5822 201.7083 0008480 266.0326  93.9942 15.24939693 93859,2021-059U,48897,6869.104,94.43,496.794,485.144,0,
